NORAD_CAT_ID,OBJECT_NAME,OBJECT_TYPE,EPOCH,MEAN_MOTION,ECCENTRICITY,INCLINATION,RA_OF_ASC_NODE,ARG_OF_PERICENTER,MEAN_ANOMALY,BSTAR,MEAN_MOTION_DOT,MEAN_MOTION_DDOT,TLE_LINE0,TLE_LINE1,TLE_LINE2,SEMIMAJOR_AXIS,PERIOD,APOGEE,PERIGEE,DECAYED
52136.0,STARLINK-3720,PAYLOAD,2023-12-08 11:48:56,15.08858613,0.0001487,53.215,160.1079,89.9111,270.2052,0.00015669,2.208e-05,0.0,0 STARLINK-3720,1 52136U 22029BA  23342.49231848  .00002208  00000-0  15669-3 0  9997,2 52136  53.2150 160.1079 0001487  89.9111 270.2052 15.08858613 96815,6917.823,95.436,540.717,538.66,0.0
52136.0,STARLINK-3720,PAYLOAD,2023-12-08 14:59:42,15.08858275,0.0001008,53.2156,159.512,94.6627,265.448,0.0001525,2.141e-05,0.0,0 STARLINK-3720,1 52136U 22029BA  23342.62479655  .00002141  00000-0  15250-3 0  9994,2 52136  53.2156 159.5120 0001008  94.6627 265.4480 15.08858275 96831,6917.825,95.436,540.387,538.992,0.0
52136.0,STARLINK-3720,PAYLOAD,2023-12-09 11:39:43,15.08838268,0.0001601,53.2144,155.645,97.7041,262.4133,0.0001507,2.111e-05,0.0,0 STARLINK-3720,1 52136U 22029BA  23343.48592584  .00002111  00000-0  15070-3 0  9993,2 52136  53.2144 155.6450 0001601  97.7041 262.4133 15.08838268 96960,6917.886,95.438,540.858,538.643,0.0
52136.0,STARLINK-3720,PAYLOAD,2023-12-09 14:50:29,15.08850001,0.0001469,53.2151,155.0519,82.002,278.1139,-5.163e-05,-1.11e-05,0.0,0 STARLINK-3720,1 52136U 22029BA  23343.61840085 -.00001110  00000-0 -51630-4 0  9993,2 52136  53.2151 155.0519 0001469  82.0020 278.1139 15.08850001 96985,6917.85,95.437,540.731,538.699,0.0
52136.0,STARLINK-3720,PAYLOAD,2023-12-10 14:41:16,15.08841287,0.0001489,53.215,150.5902,97.502,262.6141,3.424e-05,2.57e-06,0.0,0 STARLINK-3720,1 52136U 22029BA  23344.61199731  .00000257  00000-0  34240-4 0  9996,2 52136  53.2150 150.5902 0001489  97.5020 262.6141 15.08841287 97138,6917.876,95.437,540.772,538.711,0.0
52136.0,STARLINK-3720,PAYLOAD,2023-12-10 17:52:02,15.08840858,0.0001331,53.2154,149.997,83.5966,276.5178,2.8478e-05,1.65e-06,0.0,0 STARLINK-3720,1 52136U 22029BA  23344.74447792  .00000165  00000-0  28478-4 0  9997,2 52136  53.2154 149.9970 0001331  83.5966 276.5178 15.08840858 97158,6917.878,95.438,540.664,538.822,0.0
52136.0,STARLINK-3720,PAYLOAD,2023-12-11 14:32:03,15.08838305,0.000135,53.2157,146.1307,88.6832,271.4315,2.7646e-05,1.52e-06,0.0,0 STARLINK-3720,1 52136U 22029BA  23345.60559951  .00000152  00000-0  27646-4 0  9996,2 52136  53.2157 146.1307 0001350  88.6832 271.4315 15.08838305 97288,6917.886,95.438,540.684,538.817,0.0
52136.0,STARLINK-3720,PAYLOAD,2023-12-11 16:07:26,15.08838401,0.0001349,53.2157,145.8335,87.5081,272.6066,2.7349e-05,1.47e-06,0.0,0 STARLINK-3720,1 52136U 22029BA  23345.67183951  .00000147  00000-0  27349-4 0  9990,2 52136  53.2157 145.8335 0001349  87.5081 272.6066 15.08838401 97291,6917.885,95.438,540.683,538.817,0.0
52136.0,STARLINK-3720,PAYLOAD,2023-12-12 14:22:50,15.08837464,0.0001369,53.2163,141.6705,93.2786,266.8363,4.1158e-05,3.67e-06,0.0,0 STARLINK-3720,1 52136U 22029BA  23346.59920079  .00000367  00000-0  41158-4 0  9990,2 52136  53.2163 141.6705 0001369  93.2786 266.8363 15.08837464 97430,6917.888,95.438,540.7,538.806,0.0
52136.0,STARLINK-3720,PAYLOAD,2023-12-12 17:33:37,15.08839362,0.0001368,53.2165,141.0762,88.6235,271.4914,5.4436e-05,5.79e-06,0.0,0 STARLINK-3720,1 52136U 22029BA  23346.73167961  .00000579  00000-0  54436-4 0  9997,2 52136  53.2165 141.0762 0001368  88.6235 271.4914 15.08839362 97450,6917.882,95.438,540.694,538.801,0.0
52136.0,STARLINK-3720,PAYLOAD,2023-12-13 14:13:37,15.08839238,0.0001365,53.2168,137.2121,90.235,269.8798,7.1413e-05,8.49e-06,0.0,0 STARLINK-3720,1 52136U 22029BA  23347.59279978  .00000849  00000-0  71413-4 0  9998,2 52136  53.2168 137.2121 0001365  90.2350 269.8798 15.08839238 97580,6917.883,95.438,540.692,538.803,0.0
52136.0,STARLINK-3720,PAYLOAD,2023-12-13 15:49:01,15.08839528,0.0001363,53.2167,136.9139,89.1077,271.0071,7.2024e-05,8.59e-06,0.0,0 STARLINK-3720,1 52136U 22029BA  23347.65903961  .00000859  00000-0  72024-4 0  9991,2 52136  53.2167 136.9139 0001363  89.1077 271.0071 15.08839528 97597,6917.882,95.438,540.69,538.804,0.0
52136.0,STARLINK-3720,PAYLOAD,2023-12-14 14:04:25,15.08837804,0.0001339,53.2169,132.752,86.8485,273.266,9.1176e-06,-1.43e-06,0.0,0 STARLINK-3720,1 52136U 22029BA  23348.58640483 -.00000143  00000-0  91176-5 0  9998,2 52136  53.2169 132.7520 0001339  86.8485 273.2660 15.08837804 97736,6917.887,95.438,540.678,538.826,0.0
52136.0,STARLINK-3720,PAYLOAD,2023-12-14 17:15:11,15.08839537,0.0001362,53.2167,132.1548,79.0167,281.0978,2.1978e-05,6.2e-07,0.0,0 STARLINK-3720,1 52136U 22029BA  23348.71888358  .00000062  00000-0  21978-4 0  9999,2 52136  53.2167 132.1548 0001362  79.0167 281.0978 15.08839537 97751,6917.882,95.438,540.689,538.805,0.0
52136.0,STARLINK-3720,PAYLOAD,2023-12-15 13:55:12,15.08835471,0.000141,53.2166,128.2883,72.3249,287.7897,4.1926e-05,3.79e-06,0.0,0 STARLINK-3720,1 52136U 22029BA  23349.58000727  .00000379  00000-0  41926-4 0  9997,2 52136  53.2166 128.2883 0001410  72.3249 287.7897 15.08835471 97889,6917.894,95.438,540.735,538.784,0.0
52136.0,STARLINK-3720,PAYLOAD,2023-12-15 17:05:58,15.08838915,0.00015,53.2168,127.6934,68.0716,292.0436,6.8605e-05,8.04e-06,0.0,0 STARLINK-3720,1 52136U 22029BA  23349.71248499  .00000804  00000-0  68605-4 0  9998,2 52136  53.2168 127.6934 0001500  68.0716 292.0436 15.08838915 97909,6917.884,95.438,540.786,538.711,0.0
52136.0,STARLINK-3720,PAYLOAD,2023-12-16 13:45:59,15.08840852,0.0001448,53.2165,123.8284,70.4389,289.6759,8.8063e-05,1.114e-05,0.0,0 STARLINK-3720,1 52136U 22029BA  23350.57360463  .00001114  00000-0  88063-4 0  9995,2 52136  53.2165 123.8284 0001448  70.4389 289.6759 15.08840852 98034,6917.878,95.438,540.744,538.741,0.0
52136.0,STARLINK-3720,PAYLOAD,2023-12-16 15:21:22,15.08842577,0.000149,53.2162,123.5317,68.6628,291.4523,0.00010429,1.372e-05,0.0,0 STARLINK-3720,1 52136U 22029BA  23350.63984338  .00001372  00000-0  10429-3 0  9991,2 52136  53.2162 123.5317 0001490  68.6628 291.4523 15.08842577 98044,6917.873,95.437,540.768,538.707,0.0
52136.0,STARLINK-3720,PAYLOAD,2023-12-17 12:01:23,15.08836979,0.0001277,53.2156,119.6671,79.5817,280.5319,8.0346e-05,9.91e-06,0.0,0 STARLINK-3720,1 52136U 22029BA  23351.50096708  .00000991  00000-0  80346-4 0  9995,2 52136  53.2156 119.6671 0001277  79.5817 280.5319 15.08836979 98175,6917.89,95.438,540.638,538.871,0.0
52136.0,STARLINK-3720,PAYLOAD,2023-12-17 13:36:46,15.08839514,0.0001302,53.2157,119.3693,77.7891,282.3247,7.8362e-05,9.59e-06,0.0,0 STARLINK-3720,1 52136U 22029BA  23351.56720595  .00000959  00000-0  78362-4 0  9998,2 52136  53.2157 119.3693 0001302  77.7891 282.3247 15.08839514 98187,6917.882,95.438,540.648,538.846,0.0
52136.0,STARLINK-3720,PAYLOAD,2023-12-17 15:12:09,15.08842327,0.000142,53.2154,119.0727,71.3466,288.768,7.4964e-05,9.05e-06,0.0,0 STARLINK-3720,1 52136U 22029BA  23351.63344494  .00000905  00000-0  74964-4 0  9991,2 52136  53.2154 119.0727 0001420  71.3466 288.7680 15.08842327 98196,6917.873,95.437,540.721,538.756,0.0
52136.0,STARLINK-3720,PAYLOAD,2023-12-18 13:27:33,15.08846772,0.0001243,53.2163,114.907,88.0579,272.0556,4.9344e-05,4.98e-06,0.0,0 STARLINK-3720,1 52136U 22029BA  23352.56080038  .00000498  00000-0  49344-4 0  9996,2 52136  53.2163 114.9070 0001243  88.0579 272.0556 15.08846772 98336,6917.86,95.437,540.585,538.865,0.0
52136.0,STARLINK-3720,PAYLOAD,2023-12-18 15:02:56,15.08848462,0.0001235,53.2166,114.6095,83.5301,276.5832,0.00010002,1.305e-05,0.0,0 STARLINK-3720,1 52136U 22029BA  23352.62703786  .00001305  00000-0  10002-3 0  9991,2 52136  53.2166 114.6095 0001235  83.5301 276.5832 15.08848462 98342,6917.855,95.437,540.574,538.865,0.0
52136.0,STARLINK-3720,PAYLOAD,2023-12-19 11:42:57,15.0884092,0.0001257,53.2168,110.7425,98.1428,261.9707,1.9315e-05,2e-07,0.0,0 STARLINK-3720,1 52136U 22029BA  23353.48816424  .00000020  00000-0  19315-4 0  9990,2 52136  53.2168 110.7425 0001257  98.1428 261.9707 15.08840920 98478,6917.878,95.437,540.612,538.873,0.0
52136.0,STARLINK-3720,PAYLOAD,2023-12-19 14:53:43,15.08840702,0.0001224,53.2169,110.1473,91.2047,268.9085,1.3966e-05,-6.6e-07,0.0,0 STARLINK-3720,1 52136U 22029BA  23353.62064434 -.00000066  00000-0  13966-4 0  9999,2 52136  53.2169 110.1473 0001224  91.2047 268.9085 15.08840702 98497,6917.878,95.438,540.59,538.896,0.0
52136.0,STARLINK-3720,PAYLOAD,2023-12-20 11:33:45,15.0884041,0.0001214,53.2175,106.281,90.8992,269.2139,-0.00015219,-2.709e-05,0.0,0 STARLINK-3720,1 52136U 22029BA  23354.48177313 -.00002709  00000-0 -15219-3 0  9994,2 52136  53.2175 106.2810 0001214  90.8992 269.2139 15.08840410 98623,6917.879,95.438,540.584,538.904,0.0
52136.0,STARLINK-3720,PAYLOAD,2023-12-20 13:09:08,15.08835808,0.0001277,53.217,105.9864,76.716,283.3975,-6.6844e-05,-1.351e-05,0.0,0 STARLINK-3720,1 52136U 22029BA  23354.54801381 -.00001351  00000-0 -66844-4 0  9993,2 52136  53.2170 105.9864 0001277  76.7160 283.3975 15.08835808 98633,6917.893,95.438,540.642,538.875,0.0
52136.0,STARLINK-3720,PAYLOAD,2023-12-21 14:35:17,15.0884903,0.0001417,53.2172,101.2315,58.586,301.527,0.00015773,2.224e-05,0.0,0 STARLINK-3720,1 52136U 22029BA  23355.60784388  .00002224  00000-0  15773-3 0  9990,2 52136  53.2172 101.2315 0001417  58.5860 301.5270 15.08849030 98796,6917.853,95.437,540.698,538.738,0.0
52136.0,STARLINK-3720,PAYLOAD,2023-12-22 11:15:19,15.08839783,0.000182,53.2178,97.3637,51.9001,308.2155,8.2654e-05,1.028e-05,0.0,0 STARLINK-3720,1 52136U 22029BA  23356.46897517  .00001028  00000-0  82654-4 0  9998,2 52136  53.2178  97.3637 0001820  51.9001 308.2155 15.08839783 98921,6917.881,95.438,541.005,538.487,0.0
52136.0,STARLINK-3720,PAYLOAD,2023-12-22 14:26:05,15.08843689,0.0001788,53.2186,96.769,56.2323,303.8839,0.0001152,1.546e-05,0.0,0 STARLINK-3720,1 52136U 22029BA  23356.60145218  .00001546  00000-0  11520-3 0  9996,2 52136  53.2186  96.7690 0001788  56.2323 303.8839 15.08843689 98942,6917.869,95.437,540.971,538.497,0.0
